satname,norad_id,inclination_deg,eccentricity,mean_motion_rev_per_day,perigee_km,apogee_km,l1,l2
STARLINK-1475,45739,53.0483,0.0006462,15.77659599,332.73424838214396,341.41298658417963,1 45739U 20038K   25306.58335647  .00194664  00000+0  11180-2 0  9990,2 45739  53.0483 310.2985 0006462  21.0385 137.8028 15.77659599  6028
STARLINK-1480,45741,53.0536,0.0001625,15.06400568,546.0844482428538,548.3351859584109,1 45741U 20038M   25305.77982640 -.00000295  00000+0 -88506-6 0  9992,2 45741  53.0536  90.8270 0001625  68.3029 291.8133 15.06400568296923
STARLINK-1500,45744,53.041,0.0002651,15.27582068,481.22400491820554,484.86180250315374,1 45744U 20038Q   25306.06898465  .00021297  00000+0  78965-3 0  9997,2 45744  53.0410  68.0880 0002651 192.6205 167.4727 15.27582068297262
STARLINK-1504,45746,53.029,0.0002011,15.40468953,443.35220209166073,446.09635689827337,1 45746U 20038S   25306.51680911  .00021109  00000+0  52148-3 0  9991,2 45746  53.0290  30.4222 0002011 231.9146 128.1676 15.40468953297824
STARLINK-1506,45747,53.0596,0.0002053,15.21347777,500.36184496590613,503.18673654188933,1 45747U 20038T   25306.49145506  .00009370  00000+0  42691-3 0  9993,2 45747  53.0596  68.7222 0002053 218.2133 141.8717 15.21347777297296
STARLINK-1464,45751,53.0542,0.0001317,15.06386683,546.3402991455432,548.1644467063725,1 45751U 20038X   25306.51147787  .00004179  00000+0  29939-3 0  9996,2 45751  53.0542  67.5422 0001317  87.7011 272.4129 15.06386683297310
STARLINK-1477,45754,53.0537,8.19e-05,15.06721192,545.6602201583319,546.7944310348648,1 45754U 20038AA  25306.06123603  .00013471  00000+0  91358-3 0  9999,2 45754  53.0537  69.5556 0000819  45.3283 314.7773 15.06721192297249
STARLINK-1478,45755,53.0553,0.0001185,15.06402165,546.3842695152216,548.0255755508615,1 45755U 20038AB  25306.47830959 -.00000014  00000+0  17971-4 0  9994,2 45755  53.0553  67.6916 0001185  85.4310 274.6814 15.06402165297291
STARLINK-1484,45756,53.0164,0.0002071,15.6074028,384.1167543078127,386.918260004677,1 45756U 20038AC  25306.37675973  .00100915  00000+0  11828-2 0  9990,2 45756  53.0164 333.0714 0002071 359.8149   0.2862 15.60740280298615
STARLINK-1493,45759,53.0548,0.0001142,15.0639513,546.4356073172285,548.0173603369349,1 45759U 20038AF  25306.06916300 -.00000439  00000+0 -10560-4 0  9997,2 45759  53.0548  69.5282 0001142  88.1591 271.9528 15.06395130297239
STARLINK-1494,45760,53.0551,0.0002421,15.51482404,410.7531728831864,414.0411495240405,1 45760U 20038AG  25306.46891992  .00034490  00000+0  57916-3 0  9999,2 45760  53.0551  52.2077 0002421  22.2811 337.8302 15.51482404297526
STARLINK-1502,45764,53.0565,0.0001207,15.06400915,546.3728643640225,548.0446428289406,1 45764U 20038AL  25306.50041764  .00000343  00000+0  41908-4 0  9997,2 45764  53.0565  67.5912 0001207  88.4636 271.6491 15.06400915297310
STARLINK-1470,45772,53.051,0.0002946,15.17943556,510.0267689505308,514.0864710314299,1 45772U 20038AU  25306.47329287  .00040761  00000+0  19876-2 0  9996,2 45772  53.0510  40.0239 0002946 253.2939 106.7731 15.17943556297697
STARLINK-1482,45773,53.0534,0.0001296,15.06390764,546.3423362509639,548.1373939343957,1 45773U 20038AV  25306.46540553  .00009338  00000+0  64510-3 0  9998,2 45773  53.0534  47.7481 0001296  73.1992 286.9139 15.06390764297588
STARLINK-1485,45774,53.0336,0.000435,16.24707113,203.93801487010296,209.66691220337907,1 45774U 20038AW  25306.48950225  .03180392  11961-4  10916-2 0  9998,2 45774  53.0336 333.2324 0004350  29.3492 330.7791 16.24707113298629
STARLINK-1496,45780,53.0549,0.0001355,15.06398073,546.2790783921719,548.1558494518949,1 45780U 20038BC  25306.49857012  .00000307  00000+0  39497-4 0  9994,2 45780  53.0549  47.5996 0001355  96.9887 263.1256 15.06398073297570
STARLINK-1497,45781,53.0392,0.0005872,15.54395662,399.927516537904,407.89235245777854,1 45781U 20038BD  25306.42715909  .00147156  00000+0  21696-2 0  9990,2 45781  53.0392 352.6256 0005872 295.6624  64.3778 15.54395662298352
STARLINK-1510,45784,53.0323,0.0002184,15.70397324,356.28948959328955,359.2317296691772,1 45784U 20038BG  25306.58335647  .00210160  00000+0  16480-2 0  9998,2 45784  53.0323 327.8328 0002184  50.9723  96.3423 15.70397324  5946
STARLINK-1513,45786,53.0561,0.0001308,15.06395325,546.3200487114973,548.1317236425202,1 45786U 20038BJ  25306.46171919 -.00000256  00000+0  16932-5 0  9996,2 45786  53.0561  47.7675 0001308  88.5787 271.5352 15.06395325297588
STARLINK-1522,46027,53.0548,0.0001359,15.06399265,546.2726554331721,548.1549657834958,1 46027U 20055A   25306.37602501  .00001144  00000+0  95703-4 0  9998,2 46027  53.0548 338.1517 0001359  92.1078 268.0066 15.06399265289697
STARLINK-1523,46028,53.056,0.0001359,15.06392434,546.2935887152489,548.1759047560126,1 46028U 20055B   25306.45711813  .00001119  00000+0  93990-4 0  9993,2 46028  53.0560 337.7891 0001359  90.2890 269.8254 15.06392434289726
STARLINK-1526,46029,53.0551,0.0001463,15.06405185,546.1824905364956,548.2088428747729,1 46029U 20055C   25306.38339351  .00001177  00000+0  97866-4 0  9999,2 46029  53.0551 338.1168 0001463  78.5168 281.5985 15.06405185289700
STARLINK-1555,46032,53.055,0.0001442,15.06398082,546.218800228552,548.2160724479918,1 46032U 20055F   25306.36865683  .00004496  00000+0  32051-3 0  9994,2 46032  53.0550 338.1825 0001442  98.2987 261.8165 15.06398082289706
STARLINK-1556,46033,53.0555,0.0001471,15.06395822,546.2056422796431,548.2430835926189,1 46033U 20055G   25306.48291831  .00001588  00000+0  12548-3 0  9994,2 46033  53.0555 337.6748 0001471  94.1051 266.0106 15.06395822289698
STARLINK-1557,46034,53.0555,0.0001391,15.06390547,546.2772101588544,548.2038501877487,1 46034U 20055H   25306.35390970 -.00000143  00000+0  93203-5 0  9991,2 46034  53.0555 338.2502 0001391  83.1473 276.9674 15.06390547289678
STARLINK-1558,46035,53.0546,0.0001299,15.06400534,546.3103187405932,548.1095238707476,1 46035U 20055J   25306.49397869  .00009379  00000+0  64772-3 0  9997,2 46035  53.0546 337.6233 0001299  89.6638 270.4500 15.06400534289725
STARLINK-1560,46036,53.0553,0.0001402,15.06396595,546.2510584615948,548.1929291234537,1 46036U 20055K   25306.41288383  .00001018  00000+0  87256-4 0  9995,2 46036  53.0553 337.9896 0001402  94.1954 265.9195 15.06396595289719
STARLINK-1567,46038,53.055,0.0001425,15.06391604,546.250424752141,548.2241564249589,1 46038U 20055M   25306.35760281  .00007083  00000+0  49401-3 0  9999,2 46038  53.0550 338.2364 0001425  85.1888 274.9263 15.06391604289692
